[Satellite]
VERSION=1.1
NAME=SL-12 R/B(2)
NICKNAME=SL-12 R/B(2)
TLE1=1 15772U 85042D   22342.55811241  .00000045  00000+0  41979-4 0  9993
TLE2=2 15772  71.1091  74.5309 0035187 176.5906 194.8147 14.21378317945671
STATUS=0
